ONEWEB-0256             
1 48974U 21060H   23335.23413926  .00000108  00000+0  24876-3 0  9995
2 48974  87.9087  53.6786 0001638  95.6392 264.4926 13.16594118118686
ONEWEB-0257             
1 48975U 21060J   23335.19191403 -.00000111  00000+0 -32482-3 0  9992
2 48975  87.9090  53.6603 0001330  94.0299 266.0984 13.16593434118634
ONEWEB-0258             
1 48976U 21060K   23335.19402725  .00000114  00000+0  26469-3 0  9994
2 48976  87.9088  53.6891 0001650 103.6753 256.4562 13.16598043118634
ONEWEB-0259             
1 48977U 21060L   23335.18769387 -.00004160  00000+0 -10916-1 0  9999
2 48977  87.9089  53.6752 0001945 122.2888 237.8431 13.16614428118673
ONEWEB-0260             
1 48978U 21060M   23335.18136836  .00000070  00000+0  14822-3 0  9993
2 48978  87.9089  53.7065 0001330  79.1143 281.0138 13.16594046118649
ONEWEB-0261             
1 48979U 21060N   23334.76760966  .00000083  00000+0  18278-3 0  9997
2 48979  87.9087  53.7792 0001180 116.7323 243.3929 13.16594615118669
ONEWEB-0262             
1 48980U 21060P   23335.20458710  .00000125  00000+0  29249-3 0  9997
2 48980  87.9089  53.6584 0001642 119.6036 240.5259 13.16593873118689
ONEWEB-0263             
1 48981U 21060Q   23334.24828983  .00000094  00000+0  21295-3 0  9992
2 48981  87.9085  53.8618 0001269 113.5606 246.5658 13.16595605118524
